{"fetched_at":"2026-07-08T07:03:36.533Z","source":"https://celestrak.org/NORAD/elements/gp.php?GROUP=planet&FORMAT=JSON","constellation":"superdove","records":[{"OBJECT_NAME":"FLOCK 4BE-3","OBJECT_ID":"2024-149CX","EPOCH":"2026-07-07T17:15:57.220128","CLASSIFICATION_TYPE":"U","MEAN_MOTION":15.42213425,"ECCENTRICITY":0.000439,"INCLINATION":97.3688,"RA_OF_ASC_NODE":272.8366,"ARG_OF_PERICENTER":191.8031,"MEAN_ANOMALY":168.3114,"EPHEMERIS_TYPE":0,"NORAD_CAT_ID":60561,"ELEMENT_SET_NO":999,"REV_AT_EPOCH":10550,"BSTAR":0.00028731,"MEAN_MOTION_DOT":0.00012255,"MEAN_MOTION_DDOT":0},{"OBJECT_NAME":"FLOCK 4BE-19","OBJECT_ID":"2024-149CZ","EPOCH":"2026-07-07T17:23:11.133024","CLASSIFICATION_TYPE":"U","MEAN_MOTION":15.4539208,"ECCENTRICITY":0.0005193,"INCLINATION":97.3741,"RA_OF_ASC_NODE":274.483,"ARG_OF_PERICENTER":198.2277,"MEAN_ANOMALY":161.8787,"EPHEMERIS_TYPE":0,"NORAD_CAT_ID":60563,"ELEMENT_SET_NO":999,"REV_AT_EPOCH":10559,"BSTAR":0.00035646,"MEAN_MOTION_DOT":0.00016963,"MEAN_MOTION_DDOT":0},{"OBJECT_NAME":"FLOCK 4G-8","OBJECT_ID":"2025-009E","EPOCH":"2026-07-07T18:04:15.604032","CLASSIFICATION_TYPE":"U","MEAN_MOTION":15.30146854,"ECCENTRICITY":0.0003305,"INCLINATION":97.3999,"RA_OF_ASC_NODE":270.6757,"ARG_OF_PERICENTER":220.4362,"MEAN_ANOMALY":139.6633,"EPHEMERIS_TYPE":0,"NORAD_CAT_ID":62613,"ELEMENT_SET_NO":999,"REV_AT_EPOCH":8206,"BSTAR":0.00022315,"MEAN_MOTION_DOT":0.00006434,"MEAN_MOTION_DDOT":0},{"OBJECT_NAME":"FLOCK 4G-13","OBJECT_ID":"2025-009N","EPOCH":"2026-07-07T19:06:01.914336","CLASSIFICATION_TYPE":"U","MEAN_MOTION":15.48018585,"ECCENTRICITY":0.0005976,"INCLINATION":97.394,"RA_OF_ASC_NODE":272.4757,"ARG_OF_PERICENTER":216.6303,"MEAN_ANOMALY":143.4539,"EPHEMERIS_TYPE":0,"NORAD_CAT_ID":62621,"ELEMENT_SET_NO":999,"REV_AT_EPOCH":8218,"BSTAR":0.001135,"MEAN_MOTION_DOT":0.00059664,"MEAN_MOTION_DDOT":0},{"OBJECT_NAME":"FLOCK 4G-9","OBJECT_ID":"2025-009P","EPOCH":"2026-07-07T16:50:35.761056","CLASSIFICATION_TYPE":"U","MEAN_MOTION":15.28422139,"ECCENTRICITY":0.0003402,"INCLINATION":97.3952,"RA_OF_ASC_NODE":269.5037,"ARG_OF_PERICENTER":237.2807,"MEAN_ANOMALY":122.8105,"EPHEMERIS_TYPE":0,"NORAD_CAT_ID":62622,"ELEMENT_SET_NO":999,"REV_AT_EPOCH":8199,"BSTAR":0.00023392,"MEAN_MOTION_DOT":0.00006398,"MEAN_MOTION_DDOT":0},{"OBJECT_NAME":"FLOCK 4G-7","OBJECT_ID":"2025-009R","EPOCH":"2026-07-07T19:12:46.977408","CLASSIFICATION_TYPE":"U","MEAN_MOTION":15.29733095,"ECCENTRICITY":0.0001757,"INCLINATION":97.3936,"RA_OF_ASC_NODE":270.0051,"ARG_OF_PERICENTER":209.6424,"MEAN_ANOMALY":150.4717,"EPHEMERIS_TYPE":0,"NORAD_CAT_ID":62624,"ELEMENT_SET_NO":999,"REV_AT_EPOCH":8205,"BSTAR":0.00022372,"MEAN_MOTION_DOT":0.00006368,"MEAN_MOTION_DDOT":0},{"OBJECT_NAME":"FLOCK 4G-12","OBJECT_ID":"2025-009S","EPOCH":"2026-07-07T12:48:37.452384","CLASSIFICATION_TYPE":"U","MEAN_MOTION":15.29662883,"ECCENTRICITY":0.00033839,"INCLINATION":97.4016,"RA_OF_ASC_NODE":270.2824,"ARG_OF_PERICENTER":217.4487,"MEAN_ANOMALY":142.6518,"EPHEMERIS_TYPE":0,"NORAD_CAT_ID":62625,"ELEMENT_SET_NO":999,"REV_AT_EPOCH":8201,"BSTAR":0.00025501236,"MEAN_MOTION_DOT":0.00007254,"MEAN_MOTION_DDOT":0},{"OBJECT_NAME":"FLOCK 4G-11","OBJECT_ID":"2025-009W","EPOCH":"2026-07-07T17:10:11.360064","CLASSIFICATION_TYPE":"U","MEAN_MOTION":15.29773903,"ECCENTRICITY":0.0001843,"INCLINATION":97.3918,"RA_OF_ASC_NODE":270.03,"ARG_OF_PERICENTER":213.323,"MEAN_ANOMALY":146.7895,"EPHEMERIS_TYPE":0,"NORAD_CAT_ID":62629,"ELEMENT_SET_NO":999,"REV_AT_EPOCH":8205,"BSTAR":0.00027401,"MEAN_MOTION_DOT":0.00007827,"MEAN_MOTION_DDOT":0},{"OBJECT_NAME":"FLOCK 4G-26","OBJECT_ID":"2025-009AA","EPOCH":"2026-07-07T19:05:13.392096","CLASSIFICATION_TYPE":"U","MEAN_MOTION":15.29957153,"ECCENTRICITY":0.0002909,"INCLINATION":97.4011,"RA_OF_ASC_NODE":270.7007,"ARG_OF_PERICENTER":203.2539,"MEAN_ANOMALY":156.857,"EPHEMERIS_TYPE":0,"NORAD_CAT_ID":62633,"ELEMENT_SET_NO":999,"REV_AT_EPOCH":8206,"BSTAR":0.00028006,"MEAN_MOTION_DOT":0.00008048,"MEAN_MOTION_DDOT":0},{"OBJECT_NAME":"FLOCK 4G-28","OBJECT_ID":"2025-009AB","EPOCH":"2026-07-07T17:18:09.895104","CLASSIFICATION_TYPE":"U","MEAN_MOTION":15.35193234,"ECCENTRICITY":0.0001444,"INCLINATION":97.4019,"RA_OF_ASC_NODE":273.3516,"ARG_OF_PERICENTER":177.982,"MEAN_ANOMALY":182.143,"EPHEMERIS_TYPE":0,"NORAD_CAT_ID":62634,"ELEMENT_SET_NO":999,"REV_AT_EPOCH":8223,"BSTAR":0.0001856,"MEAN_MOTION_DOT":0.00006259,"MEAN_MOTION_DDOT":0},{"OBJECT_NAME":"FLOCK 4G-20","OBJECT_ID":"2025-009AD","EPOCH":"2026-07-07T19:15:37.836864","CLASSIFICATION_TYPE":"U","MEAN_MOTION":15.58951391,"ECCENTRICITY":0.0005808,"INCLINATION":97.3845,"RA_OF_ASC_NODE":273.9336,"ARG_OF_PERICENTER":223.7685,"MEAN_ANOMALY":136.3111,"EPHEMERIS_TYPE":0,"NORAD_CAT_ID":62636,"ELEMENT_SET_NO":999,"REV_AT_EPOCH":8232,"BSTAR":0.0013645,"MEAN_MOTION_DOT":0.00107114,"MEAN_MOTION_DDOT":0},{"OBJECT_NAME":"FLOCK 4G-24","OBJECT_ID":"2025-009AE","EPOCH":"2026-07-07T00:33:36.916416","CLASSIFICATION_TYPE":"U","MEAN_MOTION":15.30258976,"ECCENTRICITY":0.00028783,"INCLINATION":97.4019,"RA_OF_ASC_NODE":270.2324,"ARG_OF_PERICENTER":190.7168,"MEAN_ANOMALY":169.4012,"EPHEMERIS_TYPE":0,"NORAD_CAT_ID":62637,"ELEMENT_SET_NO":999,"REV_AT_EPOCH":8196,"BSTAR":0.00023947055,"MEAN_MOTION_DOT":0.00006934,"MEAN_MOTION_DDOT":0},{"OBJECT_NAME":"FLOCK 4G-3","OBJECT_ID":"2025-009AG","EPOCH":"2026-07-07T16:01:54.698016","CLASSIFICATION_TYPE":"U","MEAN_MOTION":15.29766292,"ECCENTRICITY":0.0002464,"INCLINATION":97.4019,"RA_OF_ASC_NODE":270.5886,"ARG_OF_PERICENTER":192.9704,"MEAN_ANOMALY":167.1473,"EPHEMERIS_TYPE":0,"NORAD_CAT_ID":62639,"ELEMENT_SET_NO":999,"REV_AT_EPOCH":8203,"BSTAR":0.000226,"MEAN_MOTION_DOT":0.0000644,"MEAN_MOTION_DDOT":0},{"OBJECT_NAME":"FLOCK 4G-27","OBJECT_ID":"2025-009AJ","EPOCH":"2026-07-07T18:03:51.784416","CLASSIFICATION_TYPE":"U","MEAN_MOTION":15.29712389,"ECCENTRICITY":0.0001812,"INCLINATION":97.3926,"RA_OF_ASC_NODE":270.0304,"ARG_OF_PERICENTER":191.2603,"MEAN_ANOMALY":168.8597,"EPHEMERIS_TYPE":0,"NORAD_CAT_ID":62641,"ELEMENT_SET_NO":999,"REV_AT_EPOCH":8204,"BSTAR":0.00025023,"MEAN_MOTION_DOT":0.00007127,"MEAN_MOTION_DDOT":0},{"OBJECT_NAME":"FLOCK 4G-29","OBJECT_ID":"2025-009AK","EPOCH":"2026-07-07T16:08:58.445088","CLASSIFICATION_TYPE":"U","MEAN_MOTION":15.29773588,"ECCENTRICITY":0.0002645,"INCLINATION":97.4013,"RA_OF_ASC_NODE":270.5538,"ARG_OF_PERICENTER":189.1811,"MEAN_ANOMALY":170.9381,"EPHEMERIS_TYPE":0,"NORAD_CAT_ID":62642,"ELEMENT_SET_NO":999,"REV_AT_EPOCH":8203,"BSTAR":0.00019164,"MEAN_MOTION_DOT":0.0000545,"MEAN_MOTION_DDOT":0},{"OBJECT_NAME":"FLOCK 4G-22","OBJECT_ID":"2025-009AN","EPOCH":"2026-07-07T18:09:04.858272","CLASSIFICATION_TYPE":"U","MEAN_MOTION":15.29674628,"ECCENTRICITY":0.0002222,"INCLINATION":97.4001,"RA_OF_ASC_NODE":270.673,"ARG_OF_PERICENTER":181.9235,"MEAN_ANOMALY":178.1998,"EPHEMERIS_TYPE":0,"NORAD_CAT_ID":62645,"ELEMENT_SET_NO":999,"REV_AT_EPOCH":8206,"BSTAR":0.0002451,"MEAN_MOTION_DOT":0.00006971,"MEAN_MOTION_DDOT":0}]}
