FLOCK 4BE-3             
1 60561U 24149CX  26188.71941227  .00012255  00000+0  28731-3 0  9994
2 60561  97.3688 272.8366 0004390 191.8031 168.3114 15.42213425105508
FLOCK 4BE-19            
1 60563U 24149CZ  26188.72443441  .00016963  00000+0  35646-3 0  9995
2 60563  97.3741 274.4830 0005193 198.2277 161.8787 15.45392080105590
FLOCK 4G-8              
1 62613U 25009E   26188.75295838  .00006434  00000+0  22315-3 0  9998
2 62613  97.3999 270.6757 0003305 220.4362 139.6633 15.30146854 82064
FLOCK 4G-13             
1 62621U 25009N   26188.79585549  .00059664  00000+0  11350-2 0  9991
2 62621  97.3940 272.4757 0005976 216.6303 143.4539 15.48018585 82186
FLOCK 4G-9              
1 62622U 25009P   26188.70180279  .00006398  00000+0  23392-3 0  9990
2 62622  97.3952 269.5037 0003402 237.2807 122.8105 15.28422139 81998
FLOCK 4G-7              
1 62624U 25009R   26188.80054372  .00006368  00000+0  22372-3 0  9991
2 62624  97.3936 270.0051 0001757 209.6424 150.4717 15.29733095 82055
FLOCK 4G-12             
1 62625U 25009S   26188.53376681  .00007254  00000+0  25501-3 0  9994
2 62625  97.4016 270.2824 0003383 217.4487 142.6518 15.29662883 82013
FLOCK 4G-11             
1 62629U 25009W   26188.71540926  .00007827  00000+0  27401-3 0  9990
2 62629  97.3918 270.0300 0001843 213.3230 146.7895 15.29773903 82057
FLOCK 4G-26             
1 62633U 25009AA  26188.79529389  .00008048  00000+0  28006-3 0  9991
2 62633  97.4011 270.7007 0002909 203.2539 156.8570 15.29957153 82066
FLOCK 4G-28             
1 62634U 25009AB  26188.72094786  .00006259  00000+0  18560-3 0  9999
2 62634  97.4019 273.3516 0001444 177.9820 182.1430 15.35193234 82237
FLOCK 4G-20             
1 62636U 25009AD  26188.80252126  .00107114  00000+0  13645-2 0  9994
2 62636  97.3845 273.9336 0005808 223.7685 136.3111 15.58951391 82326
FLOCK 4G-24             
1 62637U 25009AE  26188.02334394  .00006934  00000+0  23947-3 0  9992
2 62637  97.4019 270.2324 0002878 190.7168 169.4012 15.30258976 81966
FLOCK 4G-3              
1 62639U 25009AG  26188.66799419  .00006440  00000+0  22600-3 0  9994
2 62639  97.4019 270.5886 0002464 192.9704 167.1473 15.29766292 82033
FLOCK 4G-27             
1 62641U 25009AJ  26188.75268269  .00007127  00000+0  25023-3 0  9996
2 62641  97.3926 270.0304 0001812 191.2603 168.8597 15.29712389 82042
FLOCK 4G-29             
1 62642U 25009AK  26188.67289867  .00005450  00000+0  19164-3 0  9991
2 62642  97.4013 270.5538 0002645 189.1811 170.9381 15.29773588 82039
FLOCK 4G-22             
1 62645U 25009AN  26188.75630623  .00006971  00000+0  24510-3 0  9993
2 62645  97.4001 270.6730 0002222 181.9235 178.1998 15.29674628 82067
